0 COSMOS 2251 DEB
1 35646U 93036ANM 24021.10956410  .00001913  00000-0  19140-2 0  9991
2 35646  73.8698  71.7446 0469945 299.0099  86.6486 13.38579449725950
0 COSMOS 2251 DEB
1 35647U 93036ANN 24015.33634343  .00004518  00000-0  14881-2 0  9999
2 35647  74.0247 146.0694 0051320  54.5639 306.0290 14.37681122576197
0 COSMOS 2251 DEB
1 35650U 93036ANR 24022.17474104  .00008376  00000-0  17589-2 0  9994
2 35650  74.0582 278.9782 0028593 163.0208 348.8657 14.59489994775357
0 COSMOS 2251 DEB
1 35655U 93036ANW 24017.44748061  .00111454  00000-0  65175-2 0  9995
2 35655  73.9859  48.2678 0014375 345.3841  14.6934 15.11211505784323
0 COSMOS 2251 DEB
1 35658U 93036ANZ 24018.33629615  .00033019  00000-0  48311-2 0  9993
2 35658  74.0057 256.1733 0018068 149.8000 210.4219 14.75394722776197
0 COSMOS 2251 DEB
1 35661U 93036APC 24021.93913392  .00009421  00000-0  13536-2 0  9996
2 35661  74.0217   0.9240 0117657 280.4358  78.3572 14.71860898776538
0 COSMOS 2251 DEB
1 35663U 93036APE 24015.33463031  .00011493  00000-0  29015-2 0  9996
2 35663  74.0284  13.4336 0016102 263.7877  96.1449 14.51021608766910
0 COSMOS 2251 DEB
1 35667U 93036APJ 24012.35369735  .00006100  00000-0  15942-2 0  9998
2 35667  74.0588  23.9647 0030470 262.8912  96.8782 14.49317601606172
0 COSMOS 2251 DEB
1 35668U 93036APK 24019.59753880  .00001855  00000-0  37154-3 0  9992
2 35668  74.0439 107.2672 0087233  30.1375 330.4767 14.60138912775165
0 COSMOS 2251 DEB
1 35669U 93036APL 24019.20083778  .00001248  00000-0  11289-2 0  9999
2 35669  73.8616 208.2624 0395340  79.6143 284.9265 13.54349597513892
0 COSMOS 2251 DEB
1 35670U 93036APM 24018.31494329  .00010381  00000-0  16807-2 0  9999
2 35670  73.9061   7.5073 0052043 131.7524 228.8114 14.70445625775461
0 COSMOS 2251 DEB
1 35671U 93036APN 24020.47663404  .00001370  00000-0  38574-3 0  9996
2 35671  74.0193 295.2731 0042916 276.1868 199.1289 14.46285351767476
0 COSMOS 2251 DEB
1 35672U 93036APP 24021.74903139  .00030622  00000-0  38837-2 0  9993
2 35672  74.0517 130.9952 0038215 358.9566 152.1622 14.81067450775182
0 COSMOS 2251 DEB
1 35699U 93036APU 24020.36468222  .00233911  00000-0  47072-2 0  9995
2 35699  73.9856  31.3439 0034742 308.9372  50.8742 15.45020527503327
0 COSMOS 2251 DEB
1 35701U 93036APW 24013.72161067  .00003965  00000-0  29759-2 0  9994
2 35701  74.0058  33.0267 0302923  30.7157 331.1306 13.75255367525277
0 COSMOS 2251 DEB
1 35702U 93036APX 24017.09276051  .00068004  00000-0  70077-2 0  9993
2 35702  74.0314 170.9901 0019903  53.0671 307.2329 14.89723371559245
0 COSMOS 2251 DEB
1 35703U 93036APY 24021.27304707  .00007487  00000-0  10426-2 0  9999
2 35703  74.0510 330.1697 0090980 224.9571 134.4212 14.75078539563675
0 COSMOS 2251 DEB
1 35705U 93036AQA 24021.58560653  .00013384  00000-0  38476-2 0  9997
2 35705  74.2978 349.4849 0052728 173.6704 186.5133 14.44027773758570
0 COSMOS 2251 DEB
1 35706U 93036AQB 24004.73002766  .00001068  00000-0  92057-3 0  9994
2 35706  73.8880 149.4687 0356157 327.8223  30.1585 13.62362116733376
0 COSMOS 2251 DEB
1 35709U 93036AQE 24012.95717214  .00022218  00000-0  49269-2 0  9997
2 35709  74.0036 111.0673 0048475 355.9418   4.1345 14.56310364557139
0 COSMOS 2251 DEB
1 35711U 93036AQG 24019.55127838  .00001816  00000-0  36322-3 0  9998
2 35711  74.0474 106.9667 0089212  25.4917 335.0607 14.60102732777933
0 COSMOS 2251 DEB
1 35716U 93036AQM 24021.84636868  .00000813  00000-0  17270-3 0  9993
2 35716  73.9939  74.5494 0090559  82.9269  34.7462 14.58280160777081
0 COSMOS 2251 DEB
1 35717U 93036AQN 24021.70251550  .00004625  00000-0  17591-2 0  9990
2 35717  74.1649  32.7273 0083233  82.9470 278.1136 14.29295211755459
0 COSMOS 2251 DEB
1 35718U 93036AQP 24003.77539356  .00004688  00000-0  11807-2 0  9994
2 35718  74.0411  42.9096 0023374 274.4348  85.4142 14.51272466768355
0 COSMOS 2251 DEB
1 35721U 93036AQS 24003.75781070  .00004960  00000-0  18645-2 0  9998
2 35721  73.9542  32.8532 0170754 332.7875  26.4397 14.24061022754326
0 COSMOS 2251 DEB
1 35724U 93036AQV 24022.08948772  .00002567  00000-0  58732-3 0  9995
2 35724  74.0333 174.0014 0062935 141.4673 219.1008 14.54976237775672
