OBJECT_NAME,OBJECT_ID,EPOCH,MEAN_MOTION,ECCENTRICITY,INCLINATION,RA_OF_ASC_NODE,ARG_OF_PERICENTER,MEAN_ANOMALY,EPHEMERIS_TYPE,CLASSIFICATION_TYPE,NORAD_CAT_ID,ELEMENT_SET_NO,REV_AT_EPOCH,BSTAR,MEAN_MOTION_DOT,MEAN_MOTION_DDOT
COSMOS 2251 DEB,1993-036ANM,2024-01-21T02:37:46.338240,13.38579449,.0469945,73.8698,71.7446,299.0099,86.6486,0,U,35646,999,72595,.1914E-2,.1913E-4,0
COSMOS 2251 DEB,1993-036ANN,2024-01-15T08:04:20.072352,14.37681122,.005132,74.0247,146.0694,54.5639,306.0290,0,U,35647,999,57619,.14881E-2,.4518E-4,0
COSMOS 2251 DEB,1993-036ANR,2024-01-22T04:11:37.625856,14.59489994,.0028593,74.0582,278.9782,163.0208,348.8657,0,U,35650,999,77479,.17589E-2,.8376E-4,0
COSMOS 2251 DEB,1993-036ANW,2024-01-17T10:44:22.324704,15.11211505,.0014375,73.9859,48.2678,345.3841,14.6934,0,U,35655,999,78432,.65175E-2,.111454E-2,0
COSMOS 2251 DEB,1993-036ANZ,2024-01-18T08:04:15.987360,14.75394722,.0018068,74.0057,256.1733,149.8000,210.4219,0,U,35658,999,77619,.48311E-2,.33019E-3,0
COSMOS 2251 DEB,1993-036APC,2024-01-21T22:32:21.170688,14.71860898,.0117657,74.0217,0.9240,280.4358,78.3572,0,U,35661,999,77653,.13536E-2,.9421E-4,0
COSMOS 2251 DEB,1993-036APE,2024-01-15T08:01:52.058784,14.51021608,.0016102,74.0284,13.4336,263.7877,96.1449,0,U,35663,999,76691,.29015E-2,.11493E-3,0
COSMOS 2251 DEB,1993-036APJ,2024-01-12T08:29:19.451040,14.49317601,.003047,74.0588,23.9647,262.8912,96.8782,0,U,35667,999,60617,.15942E-2,.61E-4,0
COSMOS 2251 DEB,1993-036APK,2024-01-19T14:20:27.352320,14.60138912,.0087233,74.0439,107.2672,30.1375,330.4767,0,U,35668,999,77516,.37154E-3,.1855E-4,0
COSMOS 2251 DEB,1993-036APL,2024-01-19T04:49:12.384192,13.54349597,.039534,73.8616,208.2624,79.6143,284.9265,0,U,35669,999,51389,.11289E-2,.1248E-4,0
COSMOS 2251 DEB,1993-036APM,2024-01-18T07:33:31.100256,14.70445625,.0052043,73.9061,7.5073,131.7524,228.8114,0,U,35670,999,77546,.16807E-2,.10381E-3,0
COSMOS 2251 DEB,1993-036APN,2024-01-20T11:26:21.181056,14.46285351,.0042916,74.0193,295.2731,276.1868,199.1289,0,U,35671,999,76747,.38574E-3,.137E-4,0
COSMOS 2251 DEB,1993-036APP,2024-01-21T17:58:36.312096,14.81067450,.0038215,74.0517,130.9952,358.9566,152.1622,0,U,35672,999,77518,.38837E-2,.30622E-3,0
COSMOS 2251 DEB,1993-036APU,2024-01-20T08:45:08.543808,15.45020527,.0034742,73.9856,31.3439,308.9372,50.8742,0,U,35699,999,50332,.47072E-2,.233911E-2,0
COSMOS 2251 DEB,1993-036APW,2024-01-13T17:19:07.161888,13.75255367,.0302923,74.0058,33.0267,30.7157,331.1306,0,U,35701,999,74111,.29759E-2,.3965E-4,0
COSMOS 2251 DEB,1993-036APX,2024-01-17T02:13:34.508064,14.89723371,.0019903,74.0314,170.9901,53.0671,307.2329,0,U,35702,999,55924,.70077E-2,.68004E-3,0
COSMOS 2251 DEB,1993-036APY,2024-01-21T06:33:11.266848,14.75078539,.009098,74.0510,330.1697,224.9571,134.4212,0,U,35703,999,56367,.10426E-2,.7487E-4,0
COSMOS 2251 DEB,1993-036AQA,2024-01-21T14:03:16.404192,14.44027773,.0052728,74.2978,349.4849,173.6704,186.5133,0,U,35705,999,75857,.38476E-2,.13384E-3,0
COSMOS 2251 DEB,1993-036AQB,2024-01-04T17:31:14.389824,13.62362116,.0356157,73.8880,149.4687,327.8223,30.1585,0,U,35706,999,73337,.92057E-3,.1068E-4,0
COSMOS 2251 DEB,1993-036AQE,2024-01-12T22:58:19.672896,14.56310364,.0048475,74.0036,111.0673,355.9418,4.1345,0,U,35709,999,55713,.49269E-2,.22218E-3,0
COSMOS 2251 DEB,1993-036AQG,2024-01-19T13:13:50.452032,14.60102732,.0089212,74.0474,106.9667,25.4917,335.0607,0,U,35711,999,77793,.36322E-3,.1816E-4,0
COSMOS 2251 DEB,1993-036AQM,2024-01-21T20:18:46.253952,14.58280160,.0090559,73.9939,74.5494,82.9269,34.7462,0,U,35716,999,77708,.1727E-3,.813E-5,0
COSMOS 2251 DEB,1993-036AQN,2024-01-21T16:51:37.339200,14.29295211,.0083233,74.1649,32.7273,82.9470,278.1136,0,U,35717,999,75545,.17591E-2,.4625E-4,0
COSMOS 2251 DEB,1993-036AQP,2024-01-03T18:36:34.003584,14.51272466,.0023374,74.0411,42.9096,274.4348,85.4142,0,U,35718,999,76835,.11807E-2,.4688E-4,0
COSMOS 2251 DEB,1993-036AQS,2024-01-03T18:11:14.844480,14.24061022,.0170754,73.9542,32.8532,332.7875,26.4397,0,U,35721,999,75432,.18645E-2,.496E-4,0
COSMOS 2251 DEB,1993-036AQV,2024-01-22T02:08:51.739008,14.54976237,.0062935,74.0333,174.0014,141.4673,219.1008,0,U,35724,999,77472,.58732E-3,.2567E-4,0
